ONEWEB-0346             
1 49212U 21083AC  23248.23585096  .00000083  00000+0  17674-3 0  9997
2 49212  87.9294 177.4784 0001595  66.6870 293.4429 13.18684245 97371
ONEWEB-0348             
1 49213U 21083AD  23247.38328288 -.00001124  00000+0 -27962-2 0  9990
2 49213  87.9180 116.9026 0002143  59.0190 301.1153 13.20773988102592
ONEWEB-0350             
1 49214U 21083AE  23247.52935546  .00000318  00000+0  83727-3 0  9992
2 49214  87.9027 162.4954 0001950  61.5693 298.5632 13.13467766 98771
ONEWEB-0351             
1 49215U 21083AF  23248.05878975  .00000132  00000+0  29254-3 0  9993
2 49215  87.9197 116.7666 0002258  83.3689 276.7701 13.20773216103951
ONEWEB-0352             
1 49216U 21083AG  23247.51028953  .00000172  00000+0  43709-3 0  9992
2 49216  87.9085 162.4894 0002235  79.7034 280.4347 13.13467372 98863
ONEWEB-0354             
1 49217U 21083AH  23248.08408985 -.00004835  00000+0 -11935-1 0  9999
2 49217  87.9202 116.7445 0002149  76.4363 283.7010 13.20740460103996
ONEWEB-0355             
1 49218U 21083AJ  23248.22764080  .00000303  00000+0  79391-3 0  9993
2 49218  87.9085 162.3477 0002145  73.4901 286.6464 13.13469282 98832
ONEWEB-0357             
1 49219U 21083AK  23248.45862925 -.00000035  00000+0 -11803-3 0  9994
2 49219  87.9195 116.6889 0001821  76.2963 283.8373 13.20770940104035
